[{"OBJECT_NAME":"HYLAS 4","OBJECT_ID":"2018-033B","EPOCH":"2026-03-14T01:30:11.751264","MEAN_MOTION":1.00274037,"ECCENTRICITY":0.00012952,"INCLINATION":0.0195,"RA_OF_ASC_NODE":109.9894,"ARG_OF_PERICENTER":278.2626,"MEAN_ANOMALY":132.4031,"EPHEMERIS_TYPE":0,"CLASSIFICATION_TYPE":"U","NORAD_CAT_ID":43272,"ELEMENT_SET_NO":999,"REV_AT_EPOCH":2911,"BSTAR":0,"MEAN_MOTION_DOT":-2.34e-6,"MEAN_MOTION_DDOT":0},{"OBJECT_NAME":"IRNSS-1I","OBJECT_ID":"2018-035A","EPOCH":"2026-03-15T01:54:38.480256","MEAN_MOTION":1.00272429,"ECCENTRICITY":0.00189537,"INCLINATION":28.9541,"RA_OF_ASC_NODE":75.6486,"ARG_OF_PERICENTER":189.5913,"MEAN_ANOMALY":351.1666,"EPHEMERIS_TYPE":0,"CLASSIFICATION_TYPE":"U","NORAD_CAT_ID":43286,"ELEMENT_SET_NO":999,"REV_AT_EPOCH":2913,"BSTAR":0,"MEAN_MOTION_DOT":1.01e-6,"MEAN_MOTION_DDOT":0},{"OBJECT_NAME":"USA 283","OBJECT_ID":"2018-036A","EPOCH":"2026-03-13T04:17:38.746752","MEAN_MOTION":1.00268062,"ECCENTRICITY":0.0001223,"INCLINATION":0.0199,"RA_OF_ASC_NODE":142.9115,"ARG_OF_PERICENTER":275.2554,"MEAN_ANOMALY":311.1688,"EPHEMERIS_TYPE":0,"CLASSIFICATION_TYPE":"U","NORAD_CAT_ID":43339,"ELEMENT_SET_NO":999,"REV_AT_EPOCH":2432,"BSTAR":0,"MEAN_MOTION_DOT":0,"MEAN_MOTION_DDOT":0},{"OBJECT_NAME":"COSMOS 2526","OBJECT_ID":"2018-037A","EPOCH":"2026-03-13T00:36:02.388960","MEAN_MOTION":1.00274475,"ECCENTRICITY":4.924e-5,"INCLINATION":0.008,"RA_OF_ASC_NODE":164.2767,"ARG_OF_PERICENTER":244.9317,"MEAN_ANOMALY":258.5172,"EPHEMERIS_TYPE":0,"CLASSIFICATION_TYPE":"U","NORAD_CAT_ID":43432,"ELEMENT_SET_NO":999,"REV_AT_EPOCH":2899,"BSTAR":0,"MEAN_MOTION_DOT":-3.44e-6,"MEAN_MOTION_DDOT":0},{"OBJECT_NAME":"APSTAR-6C","OBJECT_ID":"2018-041A","EPOCH":"2026-03-12T14:21:31.078368","MEAN_MOTION":1.00269636,"ECCENTRICITY":0.000265,"INCLINATION":0.0629,"RA_OF_ASC_NODE":306.7775,"ARG_OF_PERICENTER":46.2952,"MEAN_ANOMALY":166.515,"EPHEMERIS_TYPE":0,"CLASSIFICATION_TYPE":"U","NORAD_CAT_ID":43450,"ELEMENT_SET_NO":999,"REV_AT_EPOCH":2884,"BSTAR":0,"MEAN_MOTION_DOT":-3.18e-6,"MEAN_MOTION_DDOT":0},{"OBJECT_NAME":"BANGABANDHUSAT-1","OBJECT_ID":"2018-044A","EPOCH":"2026-03-15T00:28:43.707648","MEAN_MOTION":1.00272661,"ECCENTRICITY":0.00024816,"INCLINATION":0.0211,"RA_OF_ASC_NODE":117.3217,"ARG_OF_PERICENTER":250.3623,"MEAN_ANOMALY":291.2151,"EPHEMERIS_TYPE":0,"CLASSIFICATION_TYPE":"U","NORAD_CAT_ID":43463,"ELEMENT_SET_NO":999,"REV_AT_EPOCH":2876,"BSTAR":0,"MEAN_MOTION_DOT":-3.63e-6,"MEAN_MOTION_DDOT":0},{"OBJECT_NAME":"SES-12","OBJECT_ID":"2018-049A","EPOCH":"2026-03-14T08:57:43.833600","MEAN_MOTION":1.00271135,"ECCENTRICITY":0.00018601,"INCLINATION":0.0192,"RA_OF_ASC_NODE":63.5919,"ARG_OF_PERICENTER":239.6464,"MEAN_ANOMALY":98.1739,"EPHEMERIS_TYPE":0,"CLASSIFICATION_TYPE":"U","NORAD_CAT_ID":43488,"ELEMENT_SET_NO":999,"REV_AT_EPOCH":2846,"BSTAR":0,"MEAN_MOTION_DOT":-2.7e-6,"MEAN_MOTION_DDOT":0},{"OBJECT_NAME":"FENGYUN 2H","OBJECT_ID":"2018-050A","EPOCH":"2026-03-15T03:42:40.108896","MEAN_MOTION":1.00272494,"ECCENTRICITY":0.00013026,"INCLINATION":2.7866,"RA_OF_ASC_NODE":80.2164,"ARG_OF_PERICENTER":170.7083,"MEAN_ANOMALY":56.6014,"EPHEMERIS_TYPE":0,"CLASSIFICATION_TYPE":"U","NORAD_CAT_ID":43491,"ELEMENT_SET_NO":999,"REV_AT_EPOCH":2849,"BSTAR":0,"MEAN_MOTION_DOT":-1.27e-6,"MEAN_MOTION_DDOT":0},{"OBJECT_NAME":"BEIDOU-2 IGSO-7","OBJECT_ID":"2018-057A","EPOCH":"2026-03-14T15:53:44.118816","MEAN_MOTION":1.00280609,"ECCENTRICITY":0.01006588,"INCLINATION":55.1859,"RA_OF_ASC_NODE":163.8862,"ARG_OF_PERICENTER":236.7866,"MEAN_ANOMALY":122.7872,"EPHEMERIS_TYPE":0,"CLASSIFICATION_TYPE":"U","NORAD_CAT_ID":43539,"ELEMENT_SET_NO":999,"REV_AT_EPOCH":2818,"BSTAR":0,"MEAN_MOTION_DOT":-1.49e-6,"MEAN_MOTION_DDOT":0},{"OBJECT_NAME":"TELSTAR 19V","OBJECT_ID":"2018-059A","EPOCH":"2026-03-14T01:50:06.785088","MEAN_MOTION":1.00271403,"ECCENTRICITY":0.00010018,"INCLINATION":0.0197,"RA_OF_ASC_NODE":170.78,"ARG_OF_PERICENTER":268.0214,"MEAN_ANOMALY":57.4139,"EPHEMERIS_TYPE":0,"CLASSIFICATION_TYPE":"U","NORAD_CAT_ID":43562,"ELEMENT_SET_NO":999,"REV_AT_EPOCH":2819,"BSTAR":0,"MEAN_MOTION_DOT":-2.8e-6,"MEAN_MOTION_DDOT":0},{"OBJECT_NAME":"TELKOM 4 (MERAH PUTIH)","OBJECT_ID":"2018-064A","EPOCH":"2026-03-15T02:08:11.669280","MEAN_MOTION":1.00272231,"ECCENTRICITY":0.00021043,"INCLINATION":0.0203,"RA_OF_ASC_NODE":177.5053,"ARG_OF_PERICENTER":225.2406,"MEAN_ANOMALY":269.9992,"EPHEMERIS_TYPE":0,"CLASSIFICATION_TYPE":"U","NORAD_CAT_ID":43587,"ELEMENT_SET_NO":999,"REV_AT_EPOCH":2793,"BSTAR":0,"MEAN_MOTION_DOT":-3.45e-6,"MEAN_MOTION_DDOT":0},{"OBJECT_NAME":"TELSTAR 18V","OBJECT_ID":"2018-069A","EPOCH":"2026-03-14T10:52:40.310112","MEAN_MOTION":1.00272233,"ECCENTRICITY":0.00021178,"INCLINATION":0.0181,"RA_OF_ASC_NODE":239.1072,"ARG_OF_PERICENTER":117.3545,"MEAN_ANOMALY":116.7669,"EPHEMERIS_TYPE":0,"CLASSIFICATION_TYPE":"U","NORAD_CAT_ID":43611,"ELEMENT_SET_NO":999,"REV_AT_EPOCH":2768,"BSTAR":0,"MEAN_MOTION_DOT":-2.94e-6,"MEAN_MOTION_DDOT":0},{"OBJECT_NAME":"AZERSPACE 2 (IS-38)","OBJECT_ID":"2018-074A","EPOCH":"2026-03-12T07:08:38.796864","MEAN_MOTION":1.00266327,"ECCENTRICITY":0.0002142,"INCLINATION":0.0162,"RA_OF_ASC_NODE":167.1748,"ARG_OF_PERICENTER":185.4789,"MEAN_ANOMALY":329.5515,"EPHEMERIS_TYPE":0,"CLASSIFICATION_TYPE":"U","NORAD_CAT_ID":43632,"ELEMENT_SET_NO":999,"REV_AT_EPOCH":2747,"BSTAR":0,"MEAN_MOTION_DOT":1.38e-6,"MEAN_MOTION_DDOT":0},{"OBJECT_NAME":"HORIZONS-3E","OBJECT_ID":"2018-074B","EPOCH":"2026-03-13T07:44:38.605056","MEAN_MOTION":1.00272801,"ECCENTRICITY":6.022e-5,"INCLINATION":0.0019,"RA_OF_ASC_NODE":309.6363,"ARG_OF_PERICENTER":51.3128,"MEAN_ANOMALY":95.1397,"EPHEMERIS_TYPE":0,"CLASSIFICATION_TYPE":"U","NORAD_CAT_ID":43633,"ELEMENT_SET_NO":999,"REV_AT_EPOCH":2738,"BSTAR":0,"MEAN_MOTION_DOT":-3.1e-7,"MEAN_MOTION_DDOT":0},{"OBJECT_NAME":"AEHF-4 (USA 288)","OBJECT_ID":"2018-079A","EPOCH":"2026-03-15T06:26:09.430080","MEAN_MOTION":1.00269386,"ECCENTRICITY":0.00639687,"INCLINATION":1.4223,"RA_OF_ASC_NODE":355.5678,"ARG_OF_PERICENTER":359.049,"MEAN_ANOMALY":207.253,"EPHEMERIS_TYPE":0,"CLASSIFICATION_TYPE":"U","NORAD_CAT_ID":43651,"ELEMENT_SET_NO":999,"REV_AT_EPOCH":2735,"BSTAR":0,"MEAN_MOTION_DOT":-2.74e-6,"MEAN_MOTION_DDOT":0},{"OBJECT_NAME":"BEIDOU-3 G1","OBJECT_ID":"2018-085A","EPOCH":"2026-03-13T07:30:13.029120","MEAN_MOTION":1.00265903,"ECCENTRICITY":0.00020953,"INCLINATION":2.8312,"RA_OF_ASC_NODE":100.0786,"ARG_OF_PERICENTER":8.4898,"MEAN_ANOMALY":314.822,"EPHEMERIS_TYPE":0,"CLASSIFICATION_TYPE":"U","NORAD_CAT_ID":43683,"ELEMENT_SET_NO":999,"REV_AT_EPOCH":2709,"BSTAR":0,"MEAN_MOTION_DOT":-2.79e-6,"MEAN_MOTION_DDOT":0},{"OBJECT_NAME":"GSAT-29","OBJECT_ID":"2018-089A","EPOCH":"2026-03-15T04:53:38.622336","MEAN_MOTION":1.00275774,"ECCENTRICITY":0.00015589,"INCLINATION":0.0316,"RA_OF_ASC_NODE":260.3351,"ARG_OF_PERICENTER":95.2965,"MEAN_ANOMALY":305.6757,"EPHEMERIS_TYPE":0,"CLASSIFICATION_TYPE":"U","NORAD_CAT_ID":43698,"ELEMENT_SET_NO":999,"REV_AT_EPOCH":2684,"BSTAR":0,"MEAN_MOTION_DOT":8.3e-7,"MEAN_MOTION_DDOT":0}]
